[{"OBJECT_NAME":"STARLINK-1193","OBJECT_ID":"2020-006BJ","EPOCH":"2026-03-10T00:00:02.999808","MEAN_MOTION":15.55787622,"ECCENTRICITY":0.00018468,"INCLINATION":53.052,"RA_OF_ASC_NODE":228.9273,"ARG_OF_PERICENTER":4.2814,"MEAN_ANOMALY":156.1265,"EPHEMERIS_TYPE":0,"CLASSIFICATION_TYPE":"U","NORAD_CAT_ID":45100,"ELEMENT_SET_NO":999,"REV_AT_EPOCH":587,"BSTAR":0.0019633041,"MEAN_MOTION_DOT":0.00139916,"MEAN_MOTION_DDOT":0},{"OBJECT_NAME":"CZ-11 DEB","OBJECT_ID":"2025-255B","EPOCH":"2026-03-09T22:54:27.037440","MEAN_MOTION":15.52392921,"ECCENTRICITY":0.00133106,"INCLINATION":52.9927,"RA_OF_ASC_NODE":120.0728,"ARG_OF_PERICENTER":327.0296,"MEAN_ANOMALY":32.9881,"EPHEMERIS_TYPE":0,"CLASSIFICATION_TYPE":"U","NORAD_CAT_ID":66377,"ELEMENT_SET_NO":999,"REV_AT_EPOCH":1872,"BSTAR":0.00089565046,"MEAN_MOTION_DOT":0.00055721,"MEAN_MOTION_DDOT":0}]
